STARLINK-1138
1 15178C 20012A   21326.12222510  .00009078  00000-0  60813-3 0  3268
2 15178  53.0527 248.1868 0002140  65.7234  14.7485 15.06396447    15
